NORAD_CAT_ID,OBJECT_NAME,OBJECT_TYPE,EPOCH,MEAN_MOTION,ECCENTRICITY,INCLINATION,RA_OF_ASC_NODE,ARG_OF_PERICENTER,MEAN_ANOMALY,BSTAR,MEAN_MOTION_DOT,MEAN_MOTION_DDOT,TLE_LINE0,TLE_LINE1,TLE_LINE2,SEMIMAJOR_AXIS,PERIOD,APOGEE,PERIGEE,DECAYED
52370.0,STARLINK-3827,PAYLOAD,2024-06-23 04:39:32,15.08838299,0.0001469,53.2175,112.6018,101.988,258.1276,5.2346e-05,5.45e-06,0.0,0 STARLINK-3827,1 52370U 22045AR  24175.19412995  .00000545  00000-0  52346-4 0  9997,2 52370  53.2175 112.6018 0001469 101.9880 258.1276 15.08838299121646,6917.886,95.438,540.767,538.734,0.0
52370.0,STARLINK-3827,PAYLOAD,2024-06-24 04:30:19,15.08842639,0.0001632,53.2189,108.1418,108.0969,252.0201,5.8545e-05,6.44e-06,0.0,0 STARLINK-3827,1 52370U 22045AR  24176.18772822  .00000644  00000-0  58545-4 0  9992,2 52370  53.2189 108.1418 0001632 108.0969 252.0201 15.08842639121793,6917.872,95.437,540.866,538.608,0.0
52370.0,STARLINK-3827,PAYLOAD,2024-06-25 02:45:44,15.08839228,0.0001477,53.2177,103.9778,88.2426,271.8736,2.3975e-05,9.4e-07,0.0,0 STARLINK-3827,1 52370U 22045AR  24177.11509396  .00000094  00000-0  23975-4 0  9998,2 52370  53.2177 103.9778 0001477  88.2426 271.8736 15.08839228121934,6917.883,95.438,540.77,538.726,0.0
52370.0,STARLINK-3827,PAYLOAD,2024-06-26 02:36:30,15.08849213,0.0001676,53.2188,99.5123,71.5527,288.5647,2.0265e-05,3.5e-07,0.0,0 STARLINK-3827,1 52370U 22045AR  24178.10868912  .00000035  00000-0  20265-4 0  9994,2 52370  53.2188  99.5123 0001676  71.5527 288.5647 15.08849213122086,6917.852,95.437,540.877,538.558,0.0
52370.0,STARLINK-3827,PAYLOAD,2024-06-27 00:51:54,15.08843733,0.0001541,53.2179,95.3541,85.055,275.0618,1.2185e-05,-9.4e-07,0.0,0 STARLINK-3827,1 52370U 22045AR  24179.03605128 -.00000094  00000-0  12185-4 0  9993,2 52370  53.2179  95.3541 0001541  85.0550 275.0618 15.08843733122227,6917.869,95.437,540.8,538.668,0.0
52370.0,STARLINK-3827,PAYLOAD,2024-06-27 21:31:55,15.08841194,0.0001436,53.2161,91.4887,94.0094,266.1063,-5.5523e-05,-1.172e-05,0.0,0 STARLINK-3827,1 52370U 22045AR  24179.89717541 -.00001172  00000-0 -55523-4 0  9992,2 52370  53.2161  91.4887 0001436  94.0094 266.1063 15.08841194122352,6917.877,95.437,540.735,538.748,0.0
52370.0,STARLINK-3827,PAYLOAD,2024-06-28 00:42:41,15.08845256,0.0001446,53.2179,90.894,94.3796,265.7361,-6.7282e-05,-1.359e-05,0.0,0 STARLINK-3827,1 52370U 22045AR  24180.02965244 -.00001359  00000-0 -67282-4 0  9996,2 52370  53.2179  90.8940 0001446  94.3796 265.7361 15.08845256122378,6917.864,95.437,540.73,538.729,0.0
52370.0,STARLINK-3827,PAYLOAD,2024-06-28 21:22:42,15.08846552,0.0001636,53.2182,87.0305,79.5428,280.5749,8.9157e-05,1.131e-05,0.0,0 STARLINK-3827,1 52370U 22045AR  24180.89076573  .00001131  00000-0  89157-4 0  9990,2 52370  53.2182  87.0305 0001636  79.5428 280.5749 15.08846552122503,6917.86,95.437,540.857,538.594,0.0
52370.0,STARLINK-3827,PAYLOAD,2024-06-28 22:58:05,15.08846178,0.0001452,53.2164,86.7305,74.1123,286.0029,0.00010048,1.312e-05,0.0,0 STARLINK-3827,1 52370U 22045AR  24180.95700453  .00001312  00000-0  10048-3 0  9991,2 52370  53.2164  86.7305 0001452  74.1123 286.0029 15.08846178122515,6917.862,95.437,540.731,538.722,0.0
52370.0,STARLINK-3827,PAYLOAD,2024-06-29 00:33:27,15.08859259,0.0001222,53.216,86.432,91.9827,268.1305,0.00021091,3.072e-05,0.0,0 STARLINK-3827,1 52370U 22045AR  24181.02323224  .00003072  00000-0  21091-3 0  9992,2 52370  53.2160  86.4320 0001222  91.9827 268.1305 15.08859259122521,6917.822,95.436,540.532,538.841,0.0
52370.0,STARLINK-3827,PAYLOAD,2024-06-29 18:02:45,15.08819607,0.0001119,53.2182,83.1634,104.7589,255.3527,-8.6358e-05,-1.661e-05,0.0,0 STARLINK-3827,1 52370U 22045AR  24181.75191015 -.00001661  00000-0 -86358-4 0  9995,2 52370  53.2182  83.1634 0001119 104.7589 255.3527 15.08819607122639,6917.943,95.439,540.582,539.034,0.0
52370.0,STARLINK-3827,PAYLOAD,2024-06-29 22:48:54,15.08817616,0.0001376,53.2175,82.2697,108.4489,251.6653,-0.00011151,-2.061e-05,0.0,0 STARLINK-3827,1 52370U 22045AR  24181.95063588 -.00002061  00000-0 -11151-3 0  9993,2 52370  53.2175  82.2697 0001376 108.4489 251.6653 15.08817616122665,6917.949,95.439,540.766,538.862,0.0
52370.0,STARLINK-3827,PAYLOAD,2024-06-30 00:24:18,15.08818225,0.0001236,53.2177,81.9738,101.2636,258.8495,-9.5231e-05,-1.802e-05,0.0,0 STARLINK-3827,1 52370U 22045AR  24182.01687556 -.00001802  00000-0 -95231-4 0  9992,2 52370  53.2177  81.9738 0001236 101.2636 258.8495 15.08818225122670,6917.947,95.439,540.667,538.957,0.0
52370.0,STARLINK-3827,PAYLOAD,2024-06-30 21:04:17,15.08849266,0.0001303,53.2173,78.1081,107.9946,252.1188,-9.7129e-05,-1.834e-05,0.0,0 STARLINK-3827,1 52370U 22045AR  24182.87797666 -.00001834  00000-0 -97129-4 0  9993,2 52370  53.2173  78.1081 0001303 107.9946 252.1188 15.08849266122807,6917.852,95.437,540.618,538.816,0.0
52370.0,STARLINK-3827,PAYLOAD,2024-06-30 22:39:40,15.08851962,0.0001317,53.2173,77.8113,113.1445,246.9686,-8.2537e-05,-1.602e-05,0.0,0 STARLINK-3827,1 52370U 22045AR  24182.94421555 -.00001602  00000-0 -82537-4 0  9992,2 52370  53.2173  77.8113 0001317 113.1445 246.9686 15.08851962122818,6917.844,95.437,540.62,538.798,0.0
52370.0,STARLINK-3827,PAYLOAD,2024-07-01 00:15:02,15.08861819,0.0001171,53.2174,77.5148,101.1481,258.9643,2.1608e-05,5.6e-07,0.0,0 STARLINK-3827,1 52370U 22045AR  24183.01044535  .00000056  00000-0  21608-4 0  9992,2 52370  53.2174  77.5148 0001171 101.1481 258.9643 15.08861819122828,6917.814,95.436,540.489,538.869,0.0
52370.0,STARLINK-3827,PAYLOAD,2024-07-01 09:47:21,15.08857293,0.0001005,53.2168,75.731,98.2553,261.8553,6.8047e-06,-1.79e-06,0.0,0 STARLINK-3827,1 52370U 22045AR  24183.40788702 -.00000179  00000-0  68047-5 0  9992,2 52370  53.2168  75.7310 0001005  98.2553 261.8553 15.08857293122884,6917.828,95.436,540.388,538.997,0.0
52370.0,STARLINK-3827,PAYLOAD,2024-07-01 20:55:05,15.08823504,0.0001655,53.2179,73.6478,97.0466,263.0714,0.00015387,2.161e-05,0.0,0 STARLINK-3827,1 52370U 22045AR  24183.87158908  .00002161  00000-0  15387-3 0  9991,2 52370  53.2179  73.6478 0001655  97.0466 263.0714 15.08823504122958,6917.931,95.439,540.941,538.651,0.0
52370.0,STARLINK-3827,PAYLOAD,2024-07-01 22:30:28,15.08822798,0.0001251,53.218,73.3523,102.7378,257.3754,0.00013351,1.837e-05,0.0,0 STARLINK-3827,1 52370U 22045AR  24183.93783063  .00001837  00000-0  13351-3 0  9992,2 52370  53.2180  73.3523 0001251 102.7378 257.3754 15.08822798122961,6917.933,95.439,540.663,538.933,0.0
52370.0,STARLINK-3827,PAYLOAD,2024-07-02 01:41:14,15.08832984,0.0001004,53.2171,72.7535,107.9097,252.2004,0.00018784,2.702e-05,0.0,0 STARLINK-3827,1 52370U 22045AR  24184.07030214  .00002702  00000-0  18784-3 0  9998,2 52370  53.2171  72.7535 0001004 107.9097 252.2004 15.08832984122980,6917.902,95.438,540.461,539.072,0.0
52370.0,STARLINK-3827,PAYLOAD,2024-07-02 09:38:10,15.08835691,0.0001167,53.2167,71.2663,87.0183,273.0943,5.1327e-05,5.29e-06,0.0,0 STARLINK-3827,1 52370U 22045AR  24184.40150662  .00000529  00000-0  51327-4 0  9991,2 52370  53.2167  71.2663 0001167  87.0183 273.0943 15.08835691123033,6917.894,95.438,540.566,538.951,0.0
52370.0,STARLINK-3827,PAYLOAD,2024-07-02 22:21:15,15.08842761,0.0001142,53.2173,68.8902,91.2836,268.8287,-0.00012183,-2.226e-05,0.0,0 STARLINK-3827,1 52370U 22045AR  24184.93142903 -.00002226  00000-0 -12183-3 0  9992,2 52370  53.2173  68.8902 0001142  91.2836 268.8287 15.08842761123111,6917.872,95.437,540.527,538.947,0.0
52370.0,STARLINK-3827,PAYLOAD,2024-07-03 01:32:00,15.08852236,8.49e-05,53.2159,68.2961,120.9257,239.1818,-2.1607e-05,-6.32e-06,0.0,0 STARLINK-3827,1 52370U 22045AR  24185.06389758 -.00000632  00000-0 -21607-4 0  9999,2 52370  53.2159  68.2961 0000849 120.9257 239.1818 15.08852236123135,6917.843,95.437,540.295,539.121,0.0
52370.0,STARLINK-3827,PAYLOAD,2024-07-03 09:28:56,15.08844619,8.24e-05,53.2167,66.8066,90.2003,269.9083,-5.0356e-05,-1.089e-05,0.0,0 STARLINK-3827,1 52370U 22045AR  24185.39510241 -.00001089  00000-0 -50356-4 0  9998,2 52370  53.2167  66.8066 0000824  90.2003 269.9083 15.08844619123181,6917.866,95.437,540.301,539.161,0.0
52370.0,STARLINK-3827,PAYLOAD,2024-07-03 22:12:01,15.08838299,0.0001112,53.2166,64.4293,88.9609,271.1511,9.0482e-05,1.152e-05,0.0,0 STARLINK-3827,1 52370U 22045AR  24185.92502265  .00001152  00000-0  90482-4 0  9997,2 52370  53.2166  64.4293 0001112  88.9609 271.1511 15.08838299123260,6917.886,95.438,540.52,538.981,0.0
52370.0,STARLINK-3827,PAYLOAD,2024-07-04 09:19:44,15.08838115,0.0001173,53.2187,62.3458,97.3139,262.7987,2.3211e-05,8.2e-07,0.0,0 STARLINK-3827,1 52370U 22045AR  24186.38870434  .00000082  00000-0  23211-4 0  9991,2 52370  53.2187  62.3458 0001173  97.3139 262.7987 15.08838115123330,6917.886,95.438,540.563,538.94,0.0
52370.0,STARLINK-3827,PAYLOAD,2024-07-04 20:27:26,15.08835106,0.0001367,53.2177,60.2677,77.4686,282.6459,4.3104e-05,3.98e-06,0.0,0 STARLINK-3827,1 52370U 22045AR  24186.85238736  .00000398  00000-0  43104-4 0  9999,2 52370  53.2177  60.2677 0001367  77.4686 282.6459 15.08835106123400,6917.895,95.438,540.706,538.815,0.0
52370.0,STARLINK-3827,PAYLOAD,2024-07-04 22:02:49,15.08841487,0.0001142,53.2182,59.9687,87.9945,272.1178,-2.69e-06,-3.31e-06,0.0,0 STARLINK-3827,1 52370U 22045AR  24186.91862455 -.00000331  00000-0 -26900-5 0  9992,2 52370  53.2182  59.9687 0001142  87.9945 272.1178 15.08841487123419,6917.876,95.437,540.531,538.951,0.0
52370.0,STARLINK-3827,PAYLOAD,2024-07-05 01:13:35,15.08845368,0.0001175,53.2186,59.3733,104.1039,256.0083,1.0094e-05,-1.27e-06,0.0,0 STARLINK-3827,1 52370U 22045AR  24187.05110078 -.00000127  00000-0  10094-4 0  9993,2 52370  53.2186  59.3733 0001175 104.1039 256.0083 15.08845368123431,6917.864,95.437,540.542,538.916,0.0
52370.0,STARLINK-3827,PAYLOAD,2024-07-05 09:10:30,15.08842905,0.0001078,53.2161,57.8869,95.6895,264.422,-4.1443e-06,-3.54e-06,0.0,0 STARLINK-3827,1 52370U 22045AR  24187.38230205 -.00000354  00000-0 -41443-5 0  9990,2 52370  53.2161  57.8869 0001078  95.6895 264.4220 15.08842905123488,6917.872,95.437,540.482,538.991,0.0
